NORAD_CAT_ID,OBJECT_NAME,OBJECT_TYPE,EPOCH,MEAN_MOTION,ECCENTRICITY,INCLINATION,RA_OF_ASC_NODE,ARG_OF_PERICENTER,MEAN_ANOMALY,BSTAR,MEAN_MOTION_DOT,MEAN_MOTION_DDOT,TLE_LINE0,TLE_LINE1,TLE_LINE2,SEMIMAJOR_AXIS,PERIOD,APOGEE,PERIGEE,DECAYED
53389.0,STARLINK-4523,PAYLOAD,2023-02-27 16:56:02,15.08869821,0.0001141,53.216,49.0799,101.1276,258.9845,0.0011202,0.00017599,0.0,0 STARLINK-4523,1 53389U 22097B   23058.70558670  .00017599  00000-0  11202-2 0  9993,2 53389  53.2160  49.0799 0001141 101.1276 258.9845 15.08869821 31058,6917.789,95.436,540.444,538.865,0.0
53389.0,STARLINK-4523,PAYLOAD,2023-02-28 05:39:07,15.08869055,0.0001354,53.2166,46.7015,101.5316,258.5829,0.0010932,0.00017167,0.0,0 STARLINK-4523,1 53389U 22097B   23059.23550500  .00017167  00000-0  10932-2 0  9996,2 53389  53.2166  46.7015 0001354 101.5316 258.5829 15.08869055 31130,6917.792,95.436,540.593,538.72,0.0
53389.0,STARLINK-4523,PAYLOAD,2023-02-28 10:25:16,15.08882105,0.000136,53.2172,45.8103,98.253,261.8616,0.0016202,0.00025621,0.0,0 STARLINK-4523,1 53389U 22097B   23059.43422020  .00025621  00000-0  16202-2 0  9993,2 53389  53.2172  45.8103 0001360  98.2530 261.8616 15.08882105 31819,6917.752,95.435,540.558,538.676,0.0
53389.0,STARLINK-4523,PAYLOAD,2023-03-01 05:29:56,15.08812651,0.0001052,53.2165,42.2419,124.788,235.3211,0.0015865,0.00025032,0.0,0 STARLINK-4523,1 53389U 22097B   23060.22912564  .00025032  00000-0  15865-2 0  9999,2 53389  53.2165  42.2419 0001052 124.7880 235.3211 15.08812651 31280,6917.964,95.439,540.557,539.101,0.0
53389.0,STARLINK-4523,PAYLOAD,2023-03-01 08:40:42,15.08818649,9.93e-05,53.2164,41.6467,127.737,232.3713,0.0021507,0.00034086,0.0,0 STARLINK-4523,1 53389U 22097B   23060.36160802  .00034086  00000-0  21507-2 0  9993,2 53389  53.2164  41.6467 0000993 127.7370 232.3713 15.08818649 31956,6917.946,95.439,540.498,539.124,0.0
53389.0,STARLINK-4523,PAYLOAD,2023-03-02 08:31:29,15.08877838,0.0001052,53.2169,37.1865,132.2041,227.904,0.0019049,0.0003019,0.0,0 STARLINK-4523,1 53389U 22097B   23061.35520234  .00030190  00000-0  19049-2 0  9992,2 53389  53.2169  37.1865 0001052 132.2041 227.9040 15.08877838 32102,6917.765,95.435,540.357,538.902,0.0
53389.0,STARLINK-4523,PAYLOAD,2023-03-03 06:46:52,15.08886997,8.1e-05,53.2165,33.0237,117.834,242.2735,0.002299,0.00036538,0.0,0 STARLINK-4523,1 53389U 22097B   23062.28255244  .00036538  00000-0  22990-2 0  9992,2 53389  53.2165  33.0237 0000810 117.8340 242.2735 15.08886997 31597,6917.737,95.435,540.162,539.041,0.0
53389.0,STARLINK-4523,PAYLOAD,2023-03-04 08:13:01,15.08879708,0.0001038,53.2161,28.265,110.3442,249.7662,0.0016367,0.00025884,0.0,0 STARLINK-4523,1 53389U 22097B   23063.34238260  .00025884  00000-0  16367-2 0  9992,2 53389  53.2161  28.2650 0001038 110.3442 249.7662 15.08879708 31753,6917.759,95.435,540.342,538.906,0.0
53389.0,STARLINK-4523,PAYLOAD,2023-03-04 20:56:07,15.08836266,0.0002062,53.2163,25.8875,97.2857,262.837,0.0014686,0.0002316,0.0,0 STARLINK-4523,1 53389U 22097B   23063.87231031  .00023160  00000-0  14686-2 0  9996,2 53389  53.2163  25.8875 0002062  97.2857 262.8370 15.08836266 31831,6917.892,95.438,541.183,538.33,0.0
53389.0,STARLINK-4523,PAYLOAD,2023-03-05 06:28:26,15.08838624,0.000101,53.2164,24.1023,88.1326,271.9781,0.00094379,0.00014764,0.0,0 STARLINK-4523,1 53389U 22097B   23064.26975249  .00014764  00000-0  94379-3 0  9994,2 53389  53.2164  24.1023 0001010  88.1326 271.9781 15.08838624 31894,6917.885,95.438,540.448,539.051,0.0
53389.0,STARLINK-4523,PAYLOAD,2023-03-06 06:19:13,15.08857109,0.0001165,53.2177,19.6394,111.2134,248.8982,0.0010702,0.00016793,0.0,0 STARLINK-4523,1 53389U 22097B   23065.26335326  .00016793  00000-0  10702-2 0  9992,2 53389  53.2177  19.6394 0001165 111.2134 248.8982 15.08857109 32047,6917.828,95.436,540.499,538.887,0.0
53389.0,STARLINK-4523,PAYLOAD,2023-03-06 20:37:42,15.08828737,0.0001223,53.2177,16.9656,88.6566,271.4566,6.406e-05,7.32e-06,0.0,0 STARLINK-4523,1 53389U 22097B   23065.85952451  .00000732  00000-0  64060-4 0  9995,2 53389  53.2177  16.9656 0001223  88.6566 271.4566 15.08828737 32134,6917.915,95.438,540.626,538.934,0.0
53389.0,STARLINK-4523,PAYLOAD,2023-03-07 06:10:01,15.08850319,0.0001303,53.2177,15.1805,96.9383,263.1758,0.00065377,0.00010135,0.0,0 STARLINK-4523,1 53389U 22097B   23066.25695882  .00010135  00000-0  65377-3 0  9991,2 53389  53.2177  15.1805 0001303  96.9383 263.1758 15.08850319 32197,6917.849,95.437,540.615,538.812,0.0
53389.0,STARLINK-4523,PAYLOAD,2023-03-08 06:00:48,15.08867043,0.0001523,53.217,10.7195,94.109,266.0076,0.0012346,0.0001943,0.0,0 STARLINK-4523,1 53389U 22097B   23067.25055722  .00019430  00000-0  12346-2 0  9999,2 53389  53.2170  10.7195 0001523  94.1090 266.0076 15.08867043 32346,6917.798,95.436,540.716,538.609,0.0
53389.0,STARLINK-4523,PAYLOAD,2023-03-08 20:19:16,15.08850539,0.0003016,53.2159,8.0421,101.5216,258.6115,0.00031851,4.786e-05,0.0,0 STARLINK-4523,1 53389U 22097B   23067.84672101  .00004786  00000-0  31851-3 0  9991,2 53389  53.2159   8.0421 0003016 101.5216 258.6115 15.08850539 33082,6917.848,95.437,541.8,537.627,0.0
53389.0,STARLINK-4523,PAYLOAD,2023-03-08 23:30:02,15.08849361,0.0002196,53.2157,7.4472,112.0907,248.0318,0.00042488,6.482e-05,0.0,0 STARLINK-4523,1 53389U 22097B   23067.97920040  .00006482  00000-0  42488-3 0  9996,2 53389  53.2157   7.4472 0002196 112.0907 248.0318 15.08849361 32450,6917.852,95.437,541.236,538.198,0.0
53389.0,STARLINK-4523,PAYLOAD,2023-03-09 18:34:39,15.08874977,0.0001608,53.2179,3.8834,69.7987,290.3178,0.001369,0.00021588,0.0,0 STARLINK-4523,1 53389U 22097B   23068.77407360  .00021588  00000-0  13690-2 0  9996,2 53389  53.2179   3.8834 0001608  69.7987 290.3178 15.08874977 33220,6917.773,95.435,540.751,538.526,0.0
53389.0,STARLINK-4523,PAYLOAD,2023-03-10 02:31:36,15.08835748,0.000147,53.2171,2.3934,92.236,267.8801,8.6366e-05,1.087e-05,0.0,0 STARLINK-4523,1 53389U 22097B   23069.10527860  .00001087  00000-0  86366-4 0  9996,2 53389  53.2171   2.3934 0001470  92.2360 267.8801 15.08835748 32628,6917.893,95.438,540.775,538.741,0.0
53389.0,STARLINK-4523,PAYLOAD,2023-03-10 18:25:28,15.08827252,0.0001675,53.2177,359.4254,87.0604,273.0579,-9.753e-05,-1.839e-05,0.0,0 STARLINK-4523,1 53389U 22097B   23069.76768788 -.00001839  00000-0 -97530-4 0  9996,2 53389  53.2177 359.4254 0001675  87.0604 273.0579 15.08827252 32728,6917.919,95.438,540.943,538.626,0.0
53389.0,STARLINK-4523,PAYLOAD,2023-03-11 02:22:24,15.08836603,0.0001287,53.2165,357.9355,66.5998,293.5129,0.00010731,1.42e-05,0.0,0 STARLINK-4523,1 53389U 22097B   23070.09888972  .00001420  00000-0  10731-3 0  9993,2 53389  53.2165 357.9355 0001287  66.5998 293.5129 15.08836603 33423,6917.891,95.438,540.646,538.865,0.0
53389.0,STARLINK-4523,PAYLOAD,2023-03-12 03:48:34,15.08850837,0.0001416,53.2168,353.1808,92.3748,267.7406,0.00059292,9.164e-05,0.0,0 STARLINK-4523,1 53389U 22097B   23071.15873227  .00009164  00000-0  59292-3 0  9996,2 53389  53.2168 353.1808 0001416  92.3748 267.7406 15.08850837 32932,6917.847,95.437,540.692,538.733,0.0
53389.0,STARLINK-4523,PAYLOAD,2023-03-12 19:42:25,15.08847419,0.000161,53.216,350.2045,93.7627,266.3549,0.00031308,4.699e-05,0.0,0 STARLINK-4523,1 53389U 22097B   23071.82113064  .00004699  00000-0  31308-3 0  9992,2 53389  53.2160 350.2045 0001610  93.7627 266.3549 15.08847419 33039,6917.858,95.437,540.836,538.609,0.0
53389.0,STARLINK-4523,PAYLOAD,2023-03-13 03:39:20,15.0885898,0.0002109,53.2147,348.7157,81.1721,278.951,0.00041458,6.319e-05,0.0,0 STARLINK-4523,1 53389U 22097B   23072.15232458  .00006319  00000-0  41458-3 0  9996,2 53389  53.2147 348.7157 0002109  81.1721 278.9510 15.08858980 33087,6917.822,95.436,541.146,538.228,0.0
53389.0,STARLINK-4523,PAYLOAD,2023-03-14 03:30:08,15.08834352,0.0001485,53.2158,344.2513,116.0869,244.0277,-0.0001142,-2.105e-05,0.0,0 STARLINK-4523,1 53389U 22097B   23073.14593300 -.00002105  00000-0 -11420-3 0  9999,2 53389  53.2158 344.2513 0001485 116.0869 244.0277 15.08834352 33231,6917.898,95.438,540.79,538.735,0.0
53389.0,STARLINK-4523,PAYLOAD,2023-03-14 11:27:04,15.08837348,0.0001397,53.2164,342.7658,94.5739,265.5413,4.2924e-05,3.95e-06,0.0,0 STARLINK-4523,1 53389U 22097B   23073.47713582  .00000395  00000-0  42924-4 0  9992,2 53389  53.2164 342.7658 0001397  94.5739 265.5413 15.08837348 33934,6917.888,95.438,540.72,538.787,0.0
53389.0,STARLINK-4523,PAYLOAD,2023-03-15 03:20:54,15.08871095,0.0001278,53.2158,339.7947,80.8155,279.2982,0.0010006,0.00015686,0.0,0 STARLINK-4523,1 53389U 22097B   23074.13952087  .00015686  00000-0  10006-2 0  9994,2 53389  53.2158 339.7947 0001278  80.8155 279.2982 15.08871095 33381,6917.785,95.436,540.534,538.766,0.0
53389.0,STARLINK-4523,PAYLOAD,2023-03-15 22:25:32,15.08854569,0.0001253,53.2158,336.225,96.3702,263.7433,0.0002418,3.564e-05,0.0,0 STARLINK-4523,1 53389U 22097B   23074.93440382  .00003564  00000-0  24180-3 0  9993,2 53389  53.2158 336.2250 0001253  96.3702 263.7433 15.08854569 34155,6917.836,95.437,540.568,538.834,0.0
53389.0,STARLINK-4523,PAYLOAD,2023-03-16 03:11:41,15.08873611,0.0001128,53.2155,335.3333,87.4207,272.6915,0.00071775,0.00011164,0.0,0 STARLINK-4523,1 53389U 22097B   23075.13311703  .00011164  00000-0  71775-3 0  9997,2 53389  53.2155 335.3333 0001128  87.4207 272.6915 15.08873611 33530,6917.778,95.435,540.423,538.862,0.0
53389.0,STARLINK-4523,PAYLOAD,2023-03-16 20:40:57,15.0881874,0.0001549,53.2159,332.0608,109.9922,250.1237,0.00039888,6.062e-05,0.0,0 STARLINK-4523,1 53389U 22097B   23075.86177411  .00006062  00000-0  39888-3 0  9993,2 53389  53.2159 332.0608 0001549 109.9922 250.1237 15.08818740 34298,6917.945,95.439,540.882,538.739,0.0
53389.0,STARLINK-4523,PAYLOAD,2023-03-16 22:16:20,15.08820051,0.0001162,53.2155,331.7639,96.2322,263.8803,0.00073073,0.00011354,0.0,0 STARLINK-4523,1 53389U 22097B   23075.92801631  .00011354  00000-0  73073-3 0  9992,2 53389  53.2155 331.7639 0001162  96.2322 263.8803 15.08820051 33654,6917.941,95.439,540.61,539.003,0.0
